GALAXY 11 (G-11)        
1 26038U 99071A   25070.14003142 -.00000010  00000+0  00000+0 0  9994
2 26038   5.5610  76.1505 0011677 302.4728 233.6633  0.99021386 92421
INTELSAT 9 (IS-9)       
1 26451U 00043A   25070.48412834 -.00000024  00000+0  00000+0 0  9998
2 26451   9.3705  53.3609 0003211 310.3809  46.1553  1.00272355 39495
INTELSAT 10 (IS-10)     
1 26766U 01019A   25070.48412834 -.00000020  00000+0  00000+0 0  9997
2 26766   7.9663  63.9668 0003754 286.0821  59.6990  1.00272065 40975
INTELSAT 901 (IS-901)   
1 26824U 01024A   25070.46553596 -.00000219  00000+0  00000+0 0  9997
2 26824   0.0527 108.9620 0002389 255.3044 305.1831  1.00270922 18349
INTELSAT 902 (IS-902)   
1 26900U 01039A   25070.46101818 -.00000296  00000+0  00000+0 0  9999
2 26900   4.9436  77.4224 0004506 275.8433 291.9506  1.00270145 86059
INTELSAT 904 (IS-904)   
1 27380U 02007A   25070.39366391 -.00000228  00000+0  00000+0 0  9994
2 27380   5.7577  74.7076 0003289 276.3005 290.4849  1.00270738 47127
DIRECTV 5 (TEMPO 1)     
1 27426U 02023A   25070.47709670 -.00000071  00000+0  00000+0 0  9999
2 27426   3.6913  81.1026 0003505 267.8033 242.0885  1.00272423 83488
INTELSAT 905 (IS-905)   
1 27438U 02027A   25064.33100361 -.00000284  00000+0  00000+0 0  9992
2 27438   5.5691  75.4209 0003934 269.5744 256.4341  0.99892540 83265
GALAXY 3C (G-3C)        
1 27445U 02030A   25066.40183660 -.00000165  00000+0  00000+0 0  9995
2 27445   2.5289  84.0060 0002406  53.1606  77.9902  1.00273406 41812
INTELSAT 906 (IS-906)   
1 27513U 02041A   25070.58239443  .00000000  00000+0  00000+0 0  9995
2 27513   4.6225  78.6218 0003035 252.2748 112.3724  1.00271493 82391
GALAXY 23 (G-23)        
1 27854U 03034A   25070.44699382 -.00000003  00000+0  00000+0 0  9997
2 27854   1.9983  85.4991 0002820 273.9879 209.8793  1.00272421 79105
GALAXY 13 (HORIZONS-1)  
1 27954U 03044A   25070.45947622  .00000116  00000+0  00000+0 0  9997
2 27954   0.2192  92.7191 0002287 260.3748 191.6595  1.00270559 41933
INTELSAT 10-02          
1 28358U 04022A   25070.47753029 -.00000027  00000+0  00000+0 0  9993
2 28358   0.0210 248.3738 0000840  95.1197 356.7901  1.00271736 75910
XM-3 (RHYTHM)           
1 28626U 05008A   25070.45385736 -.00000215  00000+0  00000+0 0  9999
2 28626   0.0654 260.0906 0001638 160.3019 186.0034  1.00270311 37986
DIRECTV 8               
1 28659U 05019A   25070.41711462 -.00000015  00000+0  00000+0 0  9990
2 28659   0.0199 206.0318 0003166 151.5963 202.7752  1.00272074 72431
GALAXY 28 (G-28)        
1 28702U 05022A   25070.44411455 -.00000200  00000+0  00000+0 0  9991
2 28702   2.1030  84.7192 0005176 219.8886 295.6000  1.00271012 47343
GALAXY 16 (G-16)        
1 29236U 06023A   25069.59423181 -.00000144  00000+0  00000+0 0  9996
2 29236   0.0295 220.8683 0002747 128.0268 294.4934  1.00271822 68323
DIRECTV 9S              
1 29494U 06043A   25070.42822451 -.00000129  00000+0  00000+0 0  9994
2 29494   1.2236  86.5861 0003223 269.8791 225.7996  1.00272025 46740
GALAXY 17 (G-17)        
1 31307U 07016B   25070.45411801 -.00000221  00000+0  00000+0 0  9990
2 31307   1.7975  85.8507 0005054 206.8432 315.1222  1.00273978 65168
DIRECTV 10              
1 31862U 07032A   25070.42822451 -.00000121  00000+0  00000+0 0  9997
2 31862   0.0239 292.9185 0001285  56.9487 230.8201  1.00286840 40950
INTELSAT 11 (IS-11)     
1 32253U 07044B   25070.46240828 -.00000284  00000+0  00000+0 0  9991
2 32253   2.3576  84.4118 0003268 270.8111 297.5774  1.00270677 63858
HORIZONS-2              
1 32388U 07063B   25070.45629001 -.00000269  00000+0  00000+0 0  9997
2 32388   1.4051  86.4194 0002166 270.4817 262.9031  1.00273226 63176
DIRECTV 11              
1 32729U 08013A   25070.42266956 -.00000142  00000+0  00000+0 0  9995
2 32729   0.0343  10.2625 0000376 304.3874 267.6259  1.00271199 40951
GALAXY 18 (G-18)        
1 32951U 08024A   25070.50867392  .00000009  00000+0  00000+0 0  9995
2 32951   0.0177 137.0157 0003037 212.6650 239.8130  1.00272520 41219
INTELSAT 25 (IS-25)     
1 33153U 08034A   25070.39331639 -.00000240  00000+0  00000+0 0  9996
2 33153   1.5118  86.0814 0003205 272.5599 280.7090  1.00270116 61055
GALAXY 19 (G-19)        
1 33376U 08045A   25070.23063878 -.00000155  00000+0  00000+0 0  9990
2 33376   0.0516 261.8290 0002821 110.8784 142.4252  1.00267354 60190
FM-5                    
1 35493U 09034A   25070.57544917 -.00000216  00000+0  00000+0 0  9994
2 35493   0.0351 268.5270 0002758 285.1228  96.8116  1.00270377 42009
INTELSAT 14 (IS-14)     
1 36097U 09064A   25070.54767149 -.00000290  00000+0  00000+0 0  9991
2 36097   0.0181 171.8532 0002700 199.3987 310.3709  1.00265239 55965
INTELSAT 15 (IS-15)     
1 36106U 09067A   25070.60129350 -.00000201  00000+0  00000+0 0  9990
2 36106   0.0200 138.7633 0002472 222.6865 109.6339  1.00271336 36594
DIRECTV 12              
1 36131U 09075A   25070.34213866 -.00000121  00000+0  00000+0 0  9995
2 36131   0.0281  15.1267 0000657 331.5874 202.9718  1.00276357 41913
INTELSAT 16 (IS-16)     
1 36397U 10006A   25070.45585561 -.00000260  00000+0  00000+0 0  9995
2 36397   0.0232 147.3941 0001995 210.9018 258.9720  1.00267615 55013
XM-5                    
1 37185U 10053A   25070.44812326 -.00000039  00000+0  00000+0 0  9998
2 37185   0.0271 259.4341 0001285 293.7402  22.2778  1.00269692 52849
INTELSAT 17 (IS-17)     
1 37238U 10065B   25070.58239443 -.00000018  00000+0  00000+0 0  9995
2 37238   0.0121 193.9245 0002811 180.4871  70.7144  1.00270828 48602
INTELSAT 28 (IS-28)     
1 37392U 11016A   25070.48308522 -.00000149  00000+0  00000+0 0  9992
2 37392   0.6076  88.8556 0004130 257.5457 342.8663  1.00147082 48645
INTELSAT 18 (IS-18)     
1 37834U 11056A   25070.54527905  .00000036  00000+0  00000+0 0  9996
2 37834   0.0191 139.1164 0002014 224.6577 181.9388  1.00272037 49174
INTELSAT 22 (IS-22)     
1 38098U 12011A   25070.38655743 -.00000076  00000+0  00000+0 0  9990
2 38098   0.0157 132.7115 0001784 236.3546  11.4769  1.00272502  2540
INTELSAT 19 (IS-19)     
1 38356U 12030A   25070.47658656 -.00000073  00000+0  00000+0 0  9991
2 38356   0.0253 158.1695 0003108 198.6844 150.1016  1.00270139 45808
INTELSAT 20 (IS-20)     
1 38740U 12043A   25070.39211491 -.00000041  00000+0  00000+0 0  9990
2 38740   0.0204 142.7589 0002624  40.1605 196.0236  1.00271377 46102
INTELSAT 21 (IS-21)     
1 38749U 12045A   25070.38801669 -.00000301  00000+0  00000+0 0  9991
2 38749   0.0402 268.1954 0001635  78.2033 264.5492  1.00272174 45883
INTELSAT 23 (IS-23)     
1 38867U 12057A   25070.46049691 -.00000301  00000+0  00000+0 0  9993
2 38867   0.0380 229.6430 0001201 153.8437 258.6213  1.00273192 45311
FM-6                    
1 39360U 13058A   25070.44794950 -.00000034  00000+0  00000+0 0  9990
2 39360   0.0246 244.5610 0000153  61.7872 268.0888  1.00275274 41426
INTELSAT 30 (IS-30)     
1 40271U 14062A   25068.16644097 -.00000167  00000+0  00000+0 0  9998
2 40271   0.0322  74.7953 0001090 336.3762  80.7604  1.00271929  2129
DIRECTV 14              
1 40333U 14078B   25070.42266956 -.00000142  00000+0  00000+0 0  9993
2 40333   0.0233 277.1005 0000390 316.8909 348.2433  1.00273698 37411
DIRECTV 15              
1 40663U 15026A   25070.42822451 -.00000119  00000+0  00000+0 0  9995
2 40663   0.0283 100.6524 0000462 134.9400 345.0162  1.00274712 35828
SKY MEXICO-1            
1 40664U 15026B   25070.45533433 -.00000251  00000+0  00000+0 0  9995
2 40664   0.0411   2.7399 0002398   4.1949 247.5520  1.00271033 35816
INTELSAT 34 (IS-34)     
1 40874U 15039A   25070.08100374 -.00000302  00000+0  00000+0 0  9992
2 40874   0.0208 200.6297 0000736  68.0365 233.9630  1.00269910 34983
INTELSAT 31 (IS-31)     
1 41581U 16035A   25063.60236604 -.00000155  00000+0  00000+0 0  9997
2 41581   0.0097 159.5833 0002430  58.6868  66.1041  1.00269923 31971
INTELSAT 36 (IS-36)     
1 41747U 16053A   25070.48456274 -.00000041  00000+0  00000+0 0  9996
2 41747   0.0200 135.2268 0001135 184.8790  92.2204  1.00269467 31302
INTELSAT 32E (IS-32E)   
1 41945U 17007B   25070.46240828 -.00000285  00000+0  00000+0 0  9990
2 41945   0.0135 116.6971 0000780 246.8715 289.0604  1.00270247 29589
INTELSAT 35E (IS-35E)   
1 42818U 17041A   25070.46414588 -.00000254  00000+0  00000+0 0  9990
2 42818   0.0185 174.6659 0002253 162.5441 324.7356  1.00272694 28171
INTELSAT 37E (IS-37E)   
1 42950U 17059A   25070.48864292 -.00000157  00000+0  00000+0 0  9991
2 42950   0.0272 159.2518 0002215 193.1219 334.9221  1.00270229 27422
AZERSPACE 2 (IS-38)     
1 43632U 18074A   25070.59322675  .00000120  00000+0  00000+0 0  9992
2 43632   0.0258 158.1806 0001543 188.1965  81.7855  1.00269951 23805
HORIZONS-3E             
1 43633U 18074B   25070.38308578 -.00000048  00000+0  00000+0 0  9996
2 43633   0.0356 317.1334 0001079 344.2465 174.7709  1.00272463 23704
AT&T T-16               
1 44333U 19034A   25070.42822451 -.00000131  00000+0  00000+0 0  9990
2 44333   0.0196 107.6222 0000913  60.0134  54.9650  1.00269592 20995
INTELSAT 39 (IS-39)     
1 44476U 19049B   25070.59482792  .00000017  00000+0  00000+0 0  9994
2 44476   0.0278 153.9818 0000751 338.7268 312.8684  1.00269544 20486
GALAXY 30 (G-30)        
1 46114U 20056C   25070.51761596  .00000021  00000+0  00000+0 0  9994
2 46114   0.0179 134.5516 0001921 223.5888 232.5956  1.00271311 16655
GALAXY 33 (G-33)        
1 54026U 22128A   25070.53700890  .00000063  00000+0  00000+0 0  9995
2 54026   0.0202 131.0986 0001963 218.0366 240.6003  1.00272608  9107
GALAXY 34 (G-34)        
1 54027U 22128B   25070.50894887  .00000042  00000+0  00000+0 0  9990
2 54027   0.0199 169.6121 0001455 179.4349 234.6583  1.00271351  9276
GALAXY 31 (G-31)        
1 54243U 22153A   25070.52839669 -.00000003  00000+0  00000+0 0  9995
2 54243   0.0101 147.8296 0001383 194.4733 256.3280  1.00272227  2499
GALAXY 32 (G-32)        
1 54244U 22153B   25068.52435359 -.00000191  00000+0  00000+0 0  9999
2 54244   0.0209 148.0097 0002998 203.1564 274.0571  1.00268924  8488
GALAXY 35 (G-35)        
1 54741U 22170A   25070.45238041 -.00000178  00000+0  00000+0 0  9999
2 54741   0.0111 149.6942 0002046 196.8054 252.5781  1.00271325  8252
GALAXY 36 (G-36)        
1 54742U 22170B   25070.45333609 -.00000201  00000+0  00000+0 0  9993
2 54742   0.0135 208.0616 0002497 201.9913 193.4750  1.00271398  8135
GALAXY 37 (G-37)        
1 57493U 23112A   25070.50461433  .00000031  00000+0  00000+0 0  9999
2 57493   0.0193 251.7582 0002384  97.3596 234.9276  1.00276199  5901
